ONEWEB-0473             
1 51653U 22012AH  26195.59028049 -.00000020  00000+0 -94978-4 0  9991
2 51653  87.8817  30.8148 0001859  90.1264 270.0076 13.10376494212892
ONEWEB-0474             
1 51654U 22012AJ  26195.58177826 -.00000375  00000+0 -11109-2 0  9995
2 51654  87.8823  30.8032 0001573  93.3274 266.8033 13.10376741212881
ONEWEB-0475             
1 51655U 22012AK  26195.86310687  .00000023  00000+0  26438-4 0  9992
2 51655  87.9146   0.3667 0001422 111.0242 249.1041 13.17648730217338
ONEWEB-0490             
1 54113U 22138A   26195.73189434 -.00000043  00000+0 -14008-3 0  9996
2 54113  87.9192 299.4836 0002055 106.3537 253.7822 13.19726436180460
ONEWEB-0492             
1 54114U 22138B   26195.83296963 -.00000208  00000+0 -55301-3 0  9998
2 54114  87.9184 299.4629 0002227 104.3088 255.8292 13.19725166180487
ONEWEB-0495             
1 54115U 22138C   26195.81087193  .00000373  00000+0  90038-3 0  9997
2 54115  87.9186 299.4699 0002202 118.6906 241.4449 13.19724230180461
ONEWEB-0497             
1 54116U 22138D   26195.82348889 -.00002087  00000+0 -52448-2 0  9999
2 54116  87.9191 299.4610 0002048 106.6204 253.5154 13.19735018180459
ONEWEB-0499             
1 54117U 22138E   26195.80691826  .00000031  00000+0  44235-4 0  9992
2 54117  87.9183 299.4719 0001958 108.5502 251.5844 13.19724251180464
ONEWEB-0500             
1 54118U 22138F   26195.80929823 -.00000057  00000+0 -17421-3 0  9990
2 54118  87.9192 299.4673 0002076  98.4349 261.7019 13.19726035180472
ONEWEB-0501             
1 54119U 22138G   26195.83931336 -.00000022  00000+0 -86223-4 0  9995
2 54119  87.9193 299.4615 0002085 113.0108 247.1245 13.19725895180457
ONEWEB-0502             
1 54120U 22138H   26195.82507039 -.00000787  00000+0 -19973-2 0  9999
2 54120  87.9190 299.4533 0001916 108.3679 251.7662 13.19735638180479
ONEWEB-0503             
1 54121U 22138J   26195.81402989 -.00000033  00000+0 -11433-3 0  9995
2 54121  87.9197 299.4618 0001739  97.9417 262.1913 13.19726429180469
ONEWEB-0504             
1 54122U 22138K   26195.80139449 -.00000014  00000+0 -67431-4 0  9992
2 54122  87.9192 299.4690 0001890 108.1446 251.9892 13.19726472180471
ONEWEB-0505             
1 54123U 22138L   26195.79821691 -.00000226  00000+0 -59777-3 0  9996
2 54123  87.9191 299.4702 0001935 114.8113 245.3222 13.19725140180453
ONEWEB-0506             
1 54124U 22138M   26195.84879226  .00000086  00000+0  18326-3 0  9997
2 54124  87.9196 299.4576 0002020 110.5685 249.5665 13.19725405180452
ONEWEB-0507             
1 54125U 22138N   26195.79349353 -.00000033  00000+0 -11539-3 0  9998
2 54125  87.9185 299.4780 0002067 106.5850 253.5510 13.19726744180493
ONEWEB-0508             
1 54126U 22138P   26195.79034087 -.00000205  00000+0 -54415-3 0  9995
2 54126  87.9183 299.4784 0002206 111.9578 248.1789 13.19727772180476
ONEWEB-0509             
1 54127U 22138Q   26195.84087757 -.00000050  00000+0 -15692-3 0  9996
2 54127  87.9196 299.4605 0002039 105.7105 254.4253 13.19724003180452
ONEWEB-0510             
1 54128U 22138R   26195.70748008  .00000069  00000+0  13812-3 0  9995
2 54128  87.9182 268.9533 0002015  88.2910 271.8454 13.20769039182911
ONEWEB-0511             
1 54129U 22138S   26195.83770989  .00000002  00000+0 -28291-4 0  9999
2 54129  87.9191 299.4628 0001740 103.8980 256.2346 13.19723618180489
ONEWEB-0512             
1 54130U 22138T   26195.82981432 -.00000056  00000+0 -17322-3 0  9999
2 54130  87.9184 299.4675 0001895 111.3962 248.7373 13.19726574180457
ONEWEB-0513             
1 54131U 22138U   26195.82406469 -.00000038  00000+0 -12674-3 0  9997
2 54131  87.9192 299.4096 0001559 127.5775 232.5500 13.20269525180365
ONEWEB-0514             
1 54132U 22138V   26195.84561672  .00000037  00000+0  60772-4 0  9998
2 54132  87.9193 299.4606 0001963  97.1389 262.9967 13.19726305180474
ONEWEB-0515             
1 54133U 22138W   26195.76978505  .00000071  00000+0  14310-3 0  9991
2 54133  87.9190 268.9355 0002794  87.3839 272.7615 13.20771922182948
ONEWEB-0516             
1 54134U 22138X   26195.82033731 -.00000055  00000+0 -16992-3 0  9994
2 54134  87.9185 299.4697 0002130 102.9323 257.2047 13.19724028180473
ONEWEB-0517             
1 54135U 22138Y   26195.79981494 -.00000050  00000+0 -15628-3 0  9999
2 54135  87.9193 299.4682 0001724  97.6402 262.4926 13.19725772180474
ONEWEB-0518             
1 54136U 22138Z   26195.81876398 -.00000043  00000+0 -13984-3 0  9994
2 54136  87.9185 299.4722 0002214 102.5012 257.6368 13.19723934180473
ONEWEB-0519             
1 54137U 22138AA  26195.84402647  .00000043  00000+0  75947-4 0  9996
2 54137  87.9192 299.4603 0001826  98.9935 261.1404 13.19723531180485
ONEWEB-0520             
1 54138U 22138AB  26195.80297369 -.00000037  00000+0 -12497-3 0  9991
2 54138  87.9194 299.4692 0002085 109.3664 250.7695 13.19726218180469
ONEWEB-0521             
1 54139U 22138AC  26195.83612817  .00000015  00000+0  61832-5 0  9997
2 54139  87.9197 299.4512 0001825  97.3692 262.7648 13.19726935180414
